NORAD_CAT_ID,OBJECT_NAME,OBJECT_TYPE,EPOCH,MEAN_MOTION,ECCENTRICITY,INCLINATION,RA_OF_ASC_NODE,ARG_OF_PERICENTER,MEAN_ANOMALY,BSTAR,MEAN_MOTION_DOT,MEAN_MOTION_DDOT,TLE_LINE0,TLE_LINE1,TLE_LINE2,SEMIMAJOR_AXIS,PERIOD,APOGEE,PERIGEE,DECAYED
52273.0,STARLINK-3782,PAYLOAD,2022-08-13 22:00:00,15.08832111,0.0001536,53.2161,191.9742,71.1226,122.7881,0.00082966,0.00012938,0.0,0 STARLINK-3782,1 52273U 22041N   22225.91667824  .00012938  00000-0  82966-3 0  9991,2 52273  53.2161 191.9742 0001536  71.1226 122.7881 15.08832111  1309,6917.905,95.438,540.832,538.707,0.0
52273.0,STARLINK-3782,PAYLOAD,2022-08-14 14:00:01,15.08857596,0.0001561,53.2157,188.9821,65.6939,151.4015,-0.0016942,-0.00027163,0.0,0 STARLINK-3782,1 52273U 22041N   22226.58334491 -.00027163  00000-0 -16942-2 0  9994,2 52273  53.2157 188.9821 0001561  65.6939 151.4015 15.08857596  1307,6917.8269999999975,95.436,540.771,538.612,0.0
52273.0,STARLINK-3782,PAYLOAD,2022-08-14 22:00:00,15.08861856,0.0001544,53.2159,187.4854,72.1883,156.504,-0.0016035999999999,-0.00025734,0.0,0 STARLINK-3782,1 52273U 22041N   22226.91667824 -.00025734  00000-0 -16036-2 0  9996,2 52273  53.2159 187.4854 0001544  72.1883 156.5040 15.08861856  1309,6917.814,95.436,540.747,538.61,0.0
52273.0,STARLINK-3782,PAYLOAD,2022-08-15 06:00:00,15.08817052,0.0001606,53.2158,185.9907,61.6033,178.705,0.0010714,0.00016794,0.0,0 STARLINK-3782,1 52273U 22041N   22227.25001157  .00016794  00000-0  10714-2 0  9996,2 52273  53.2158 185.9907 0001606  61.6033 178.7050 15.08817052 19102,6917.951,95.439,540.927,538.705,0.0
52273.0,STARLINK-3782,PAYLOAD,2022-08-15 14:00:01,15.08842667,0.0001509,53.2156,184.4931,64.5162,187.3652,-0.0016108,-0.00025834,0.0,0 STARLINK-3782,1 52273U 22041N   22227.58334491 -.00025834  00000-0 -16108-2 0  9992,2 52273  53.2156 184.4931 0001509  64.5162 187.3652 15.08842667  1305,6917.871999999999,95.437,540.781,538.693,0.0
52273.0,STARLINK-3782,PAYLOAD,2022-08-15 22:00:00,15.0884107,0.0001548,53.2157,182.9964,70.6465,192.8178,0.00030467,4.564e-05,0.0,0 STARLINK-3782,1 52273U 22041N   22227.91667824  .00004564  00000-0  30467-3 0  9998,2 52273  53.2157 182.9964 0001548  70.6465 192.8178 15.08841070  1303,6917.877,95.437,540.813,538.6709999999998,0.0
52273.0,STARLINK-3782,PAYLOAD,2022-08-16 06:00:02,15.08827062,0.0001666999999999,53.2157,181.5017,61.7329,213.3993,0.0020204999999999,0.00032003,0.0,0 STARLINK-3782,1 52273U 22041N   22228.25002315  .00032003  00000-0  20205-2 0  9991,2 52273  53.2157 181.5017 0001667  61.7329 213.3993 15.08827062 19251,6917.92,95.438,540.938,538.632,0.0
52273.0,STARLINK-3782,PAYLOAD,2022-08-16 14:00:01,15.08861934,0.0001508,53.2157,180.00400000000005,63.6165,223.0452,-0.0039961999999999,-0.00063366,0.0,0 STARLINK-3782,1 52273U 22041N   22228.58334491 -.00063366  00000-0 -39962-2 0  9998,2 52273  53.2157 180.0040 0001508  63.6165 223.0452 15.08861934  1305,6917.813,95.436,540.722,538.635,0.0
52273.0,STARLINK-3782,PAYLOAD,2022-08-16 22:00:00,15.08834706,0.0001509,53.2158,178.5073,68.2714,229.9798,0.00010707,1.416e-05,0.0,0 STARLINK-3782,1 52273U 22041N   22228.91667824  .00001416  00000-0  10707-3 0  9997,2 52273  53.2158 178.5073 0001509  68.2714 229.9798 15.08834706 19355,6917.897,95.438,540.805,538.7180000000002,0.0
52273.0,STARLINK-3782,PAYLOAD,2022-08-17 16:00:00,15.088266699999998,0.000153,53.2159,175.1403,65.9934,348.3395,0.0019855999999999,0.00031443,0.0,0 STARLINK-3782,1 52273U 22041N   22229.66667824  .00031443  00000-0  19856-2 0  9996,2 52273  53.2159 175.1403 0001530  65.9934 348.3395 15.08826670  1304,6917.920999999999,95.438,540.845,538.7280000000002,0.0
52273.0,STARLINK-3782,PAYLOAD,2022-08-18 08:00:01,15.08822456,0.0001784,53.2158,172.1493,60.9949,16.5354,0.0030174,0.00048039,0.0,0 STARLINK-3782,1 52273U 22041N   22230.33334491  .00048039  00000-0  30174-2 0  9998,2 52273  53.2158 172.1493 0001784  60.9949  16.5354 15.08822456 19576,6917.934,95.439,541.033,538.565,0.0
52273.0,STARLINK-3782,PAYLOAD,2022-08-18 14:00:01,15.08847687,0.0001699999999999,53.2161,171.0256,67.4116,288.8138,0.00033203,5.001e-05,0.0,0 STARLINK-3782,1 52273U 22041N   22230.58334491  .00005001  00000-0  33203-3 0  9994,2 52273  53.2161 171.0256 0001700  67.4116 288.8138 15.08847687  1300,6917.857,95.437,540.898,538.5459999999998,0.0
52273.0,STARLINK-3782,PAYLOAD,2022-08-18 22:00:00,15.08864826,0.0001656,53.217,169.5301,66.3472,301.4613,-0.0072476,-0.00113893,0.0,0 STARLINK-3782,1 52273U 22041N   22230.91667824 -.00113893  00000-0 -72476-2 0  9995,2 52273  53.2170 169.5301 0001656  66.3472 301.4613 15.08864826  1300,6917.805,95.436,540.815,538.524,0.0
52273.0,STARLINK-3782,PAYLOAD,2022-08-19 06:00:00,15.08798863,0.0001838,53.2174,168.0368,57.4931,321.8832,0.0038595,0.00061604,0.0,0 STARLINK-3782,1 52273U 22041N   22231.25001157  .00061604  00000-0  38595-2 0  9998,2 52273  53.2174 168.0368 0001838  57.4931 321.8832 15.08798863 19703,6918.005999999999,95.44,541.143,538.6,0.0
52273.0,STARLINK-3782,PAYLOAD,2022-08-19 14:00:01,15.08841918,0.0001525,53.2161,166.5364,66.4965,324.5076,-0.0019709,-0.0003151999999999,0.0,0 STARLINK-3782,1 52273U 22041N   22231.58334491 -.00031520  00000-0 -19709-2 0  9996,2 52273  53.2161 166.5364 0001525  66.4965 324.5076 15.08841918  1305,6917.875,95.437,540.795,538.685,0.0
52273.0,STARLINK-3782,PAYLOAD,2022-08-19 22:00:00,15.08840733,0.0001504,53.2163,165.0403,67.7817,334.801,-0.0008837999999999,-0.00014326,0.0,0 STARLINK-3782,1 52273U 22041N   22231.91667824 -.00014326  00000-0 -88380-3 0  9999,2 52273  53.2163 165.0403 0001504  67.7817 334.8010 15.08840733 19813,6917.878000000002,95.438,540.784,538.703,0.0
52273.0,STARLINK-3782,PAYLOAD,2022-08-20 14:00:01,15.08820926,0.0001503,53.216,162.0472,69.2185,356.5752,0.0012259,0.00019266,0.0,0 STARLINK-3782,1 52273U 22041N   22232.58334491  .00019266  00000-0  12259-2 0  9991,2 52273  53.2160 162.0472 0001503  69.2185 356.5752 15.08820926 19914,6917.939,95.439,540.8430000000002,538.764,0.0
52273.0,STARLINK-3782,PAYLOAD,2022-08-20 22:00:00,15.08861098,0.0001513,53.216,160.5514,69.7127,7.6531,-0.0041686,-0.00066061,0.0,0 STARLINK-3782,1 52273U 22041N   22232.91667824 -.00066061  00000-0 -41686-2 0  9990,2 52273  53.2160 160.5514 0001513  69.7127   7.6531 15.08861098  1304,6917.816,95.436,540.7280000000002,538.634,0.0
52273.0,STARLINK-3782,PAYLOAD,2022-08-21 06:00:00,15.08790148,0.0001541999999999,53.2157,159.0563,61.3998,27.56,0.0029413,0.0004677,0.0,0 STARLINK-3782,1 52273U 22041N   22233.25001157  .00046770  00000-0  29413-2 0  9996,2 52273  53.2157 159.0563 0001542  61.3998  27.5600 15.08790148 20017,6918.033,95.441,540.965,538.831,0.0
52273.0,STARLINK-3782,PAYLOAD,2022-08-21 14:00:01,15.08807161,0.0001421,53.2157,157.5583,69.8967,30.63,0.00155,0.00024444,0.0,0 STARLINK-3782,1 52273U 22041N   22233.58334491  .00024444  00000-0  15500-2 0  9998,2 52273  53.2157 157.5583 0001421  69.8967  30.6300 15.08807161  1304,6917.981,95.44,540.8290000000002,538.863,0.0
52273.0,STARLINK-3782,PAYLOAD,2022-08-21 22:00:00,15.0884361,0.0001504,53.2157,156.0626,70.5474,41.5407,-0.0015546,-0.00024947,0.0,0 STARLINK-3782,1 52273U 22041N   22233.91667824 -.00024947  00000-0 -15546-2 0  9994,2 52273  53.2157 156.0626 0001504  70.5474  41.5407 15.08843610 20118,6917.869000000002,95.437,540.775,538.694,0.0
52273.0,STARLINK-3782,PAYLOAD,2022-08-22 12:00:00,15.08840196,0.000152,53.2155,153.4437,68.9987,333.3633,-0.00085983,-0.00013946,0.0,0 STARLINK-3782,1 52273U 22041N   22234.50001157 -.00013946  00000-0 -85983-3 0  9991,2 52273  53.2155 153.4437 0001520  68.9987 333.3633 15.08840196 20204,6917.88,95.438,540.7959999999998,538.693,0.0
52273.0,STARLINK-3782,PAYLOAD,2022-08-22 22:00:00,15.08857641,0.0001578,53.2157,151.5737,70.9727,75.8738,-0.0016045999999999,-0.00025747,0.0,0 STARLINK-3782,1 52273U 22041N   22234.91667824 -.00025747  00000-0 -16046-2 0  9990,2 52273  53.2157 151.5737 0001578  70.9727  75.8738 15.08857641  1303,6917.826,95.436,540.783,538.6,0.0
52273.0,STARLINK-3782,PAYLOAD,2022-08-23 06:00:00,15.08825468,0.0001634,53.2155,150.0784,63.165,95.2861,0.0025441,0.00040418,0.0,0 STARLINK-3782,1 52273U 22041N   22235.25001157  .00040418  00000-0  25441-2 0  9998,2 52273  53.2155 150.0784 0001634  63.1650  95.2861 15.08825468 20316,6917.925,95.438,540.92,538.659,0.0
52273.0,STARLINK-3782,PAYLOAD,2022-08-23 14:00:01,15.08840713,0.0001509,53.2156,148.5803,70.4157,99.6374,-3.6655e-05,-8.71e-06,0.0,0 STARLINK-3782,1 52273U 22041N   22235.58334491 -.00000871  00000-0 -36655-4 0  9996,2 52273  53.2156 148.5803 0001509  70.4157  99.6374 15.08840713  1300,6917.878000000002,95.438,540.7869999999998,538.6990000000002,0.0
52273.0,STARLINK-3782,PAYLOAD,2022-08-23 22:00:01,15.08846369,0.0001556,53.2159,147.0847,68.8909,112.8211,-0.0021601,-0.00034508,0.0,0 STARLINK-3782,1 52273U 22041N   22235.91668981 -.00034508  00000-0 -21601-2 0  9994,2 52273  53.2159 147.0847 0001556  68.8909 112.8211 15.08846369 20417,6917.861,95.437,540.802,538.65,0.0
52273.0,STARLINK-3782,PAYLOAD,2022-08-24 14:00:01,15.08812533,0.0001527,53.2161,144.0912,69.0727,135.7504,0.0023999,0.00038084,0.0,0 STARLINK-3782,1 52273U 22041N   22236.58334491  .00038084  00000-0  23999-2 0  9997,2 52273  53.2161 144.0912 0001527  69.0727 135.7504 15.08812533 20515,6917.964,95.439,540.886,538.773,0.0
52273.0,STARLINK-3782,PAYLOAD,2022-08-24 22:00:00,15.08850471,0.0001656,53.2164,142.596,67.9204,148.4794,-0.0014841,-0.00023837,0.0,0 STARLINK-3782,1 52273U 22041N   22236.91667824 -.00023837  00000-0 -14841-2 0  9991,2 52273  53.2164 142.5960 0001656  67.9204 148.4794 15.08850471  1305,6917.848000000001,95.437,540.859,538.568,0.0
52273.0,STARLINK-3782,PAYLOAD,2022-08-25 06:00:02,15.08832881,0.000171,53.2163,141.1003,62.2241,165.8349,0.001411,0.00022235,0.0,0 STARLINK-3782,1 52273U 22041N   22237.25002315  .00022235  00000-0  14110-2 0  9995,2 52273  53.2163 141.1003 0001710  62.2241 165.8349 15.08832881 20616,6917.901999999999,95.438,540.95,538.5840000000002,0.0
